{
    "links": {
        "self": "http://www.neowsapp.com/rest/v1/neo/3757196?api_key=iIulBulltgU6a56xZRHN4H3l9WmuAYTsLGpBGhQ2"
    },
    "id": "3757196",
    "neo_reference_id": "3757196",
    "name": "(2016 PQ26)",
    "designation": "2016 PQ26",
    "nasa_jpl_url": "http://ssd.jpl.nasa.gov/sbdb.cgi?sstr=3757196",
    "absolute_magnitude_h": 24.0,
    "estimated_diameter": {
        "kilometers": {
            "estimated_diameter_min": 0.0421264611,
            "estimated_diameter_max": 0.0941976306
        },
        "meters": {
            "estimated_diameter_min": 42.1264610556,
            "estimated_diameter_max": 94.1976305719
        },
        "miles": {
            "estimated_diameter_min": 0.0261761612,
            "estimated_diameter_max": 0.0585316759
        },
        "feet": {
            "estimated_diameter_min": 138.2101784897,
            "estimated_diameter_max": 309.0473542854
        }
    },
    "is_potentially_hazardous_asteroid": false,
    "close_approach_data": [
        {
            "close_approach_date": "2016-07-15",
            "close_approach_date_full": "2016-Jul-15 21:58",
            "epoch_date_close_approach": 1468619880000,
            "relative_velocity": {
                "kilometers_per_second": "13.4641486649",
                "kilometers_per_hour": "48470.9351935324",
                "miles_per_hour": "30117.9541484479"
            },
            "miss_distance": {
                "astronomical": "0.0164211494",
                "lunar": "6.3878271166",
                "kilometers": "2456568.973191778",
                "miles": "1526441.1779234164"
            },
            "orbiting_body": "Earth"
        }
    ],
    "orbital_data": {
        "orbit_id": "2",
        "orbit_determination_date": "2017-04-06 08:24:38",
        "first_observation_date": "2016-08-06",
        "last_observation_date": "2016-08-10",
        "data_arc_in_days": 4,
        "observations_used": 22,
        "orbit_uncertainty": "8",
        "minimum_orbit_intersection": ".00885893",
        "jupiter_tisserand_invariant": "3.129",
        "epoch_osculation": "2457609.5",
        "eccentricity": ".6470652454295731",
        "semi_major_axis": "2.504704619533062",
        "inclination": "6.079450134850193",
        "ascending_node_longitude": "110.9085452250845",
        "orbital_period": "1447.882110000558",
        "perihelion_distance": ".8839973101663159",
        "perihelion_argument": "136.8687238881117",
        "aphelion_distance": "4.125411928899809",
        "perihelion_time": "2457551.966259650461",
        "mean_anomaly": "14.30513325827754",
        "mean_motion": ".248639027662177",
        "equinox": "J2000",
        "orbit_class": {
            "orbit_class_type": "APO",
            "orbit_class_description": "Near-Earth asteroid orbits which cross the Earth’s orbit similar to that of 1862 Apollo",
            "orbit_class_range": "a (semi-major axis) > 1.0 AU; q (perihelion) < 1.017 AU"
        }
    },
    "is_sentry_object": false
}